COSMOS 1933             
1 18958U 88020A   26027.71766759  .00006254  00000+0  30959-3 0  9999
2 18958  82.5145 291.4416 0004387   6.5506 353.5784 15.17612271 44016
SL-3 R/B                
1 19046U 88032B   26027.77567391  .00008956  00000+0  42286-3 0  9995
2 19046  97.5129  11.2089 0026991  20.7581 339.4743 15.19344052 45899
SL-16 R/B               
1 19120U 88039B   26027.75957127  .00000072  00000+0  56708-4 0  9999
2 19120  71.0150 155.0946 0020329  37.9924 322.2630 14.19609119952576
COSMOS 1953             
1 19210U 88050A   26027.50235889  .00012143  00000+0  44747-3 0  9990
2 19210  82.5074 199.6379 0010319 270.0149  89.9907 15.27643551 31490
SL-8 R/B                
1 19257U 88053B   26027.86522218  .00000404  00000+0  13955-3 0  9992
2 19257  74.0464 187.7075 0019860  15.3819 150.1226 14.38889877970722
COSMOS 1975             
1 19573U 88093A   26027.78742634  .00012324  00000+0  45897-3 0  9998
2 19573  82.5212 158.7058 0010690 319.0811  40.9624 15.27290560 13163
SL-14 R/B               
1 19574U 88093B   26027.59533544  .00000735  00000+0  81851-4 0  9990
2 19574  82.5292  80.6316 0020969 169.9428 349.8962 14.85610348994930
SL-16 R/B               
1 19650U 88102B   26027.58340801 -.00000175  00000+0 -64377-4 0  9991
2 19650  70.9971 237.9857 0011966  70.1100 290.1312 14.16147759921071
INTERCOSMOS 24          
1 20261U 89080A   26027.34124298  .00000681  00000+0  19448-3 0  9999
2 20261  82.6078 131.3101 1188695  28.7995 337.3723 12.59503269661599
SL-14 R/B               
1 20262U 89080C   26027.74762012  .00000455  00000+0  13852-3 0  9998
2 20262  82.5927 199.4731 1229458 278.3963  67.9916 12.50448037655031
DELTA 1 R/B             
1 20323U 89089B   26027.57948877  .00000726  00000+0  18875-3 0  9992
2 20323  97.0732 241.5484 0067615 252.3226 107.0582 14.50624682889775
ARIANE 40 R/B           
1 20443U 90005H   26027.60493462  .00000509  00000+0  17566-3 0  9999
2 20443  98.3171  89.4722 0009426 334.5142  25.5581 14.39840950886897
